ICEYE-X2                
1 43800U 18099AU  26193.85182631  .00002404  00000+0  12137-3 0  9993
2 43800  97.4351 247.2432 0009521 203.1737 156.9069 15.18021117416712
ICEYE-X4                
1 44390U 19038D   26193.84226274  .00008128  00000+0  28343-3 0  9998
2 44390  97.8751 228.2715 0012626 206.5249 153.5346 15.29849601385728
ICEYE-X7                
1 46496U 20068L   26193.87950330  .00007885  00000+0  25725-3 0  9992
2 46496  97.7500 161.5852 0005799 222.9570 137.1218 15.32067584318729
ICEYE-X6                
1 46497U 20068M   26193.86203175  .00002002  00000+0  14715-3 0  9993
2 46497  98.0985 188.7637 0007436  16.8680 343.2791 15.04658872317095
ICEYE-X21               
1 55049U 23001AS  26175.21618542  .01585954  23968-5  60214-3 0  9995
2 55049  97.3001 262.6152 0012377 285.9702  74.0225 16.24069885194757
ICEYE-X25               
1 56963U 23084AH  26193.88335796  .00040496  00000+0  45204-3 0  9996
2 56963  97.5901 341.9509 0004166 192.3978 167.7178 15.62678520171984
ICEYE-X31               
1 58288U 23174AJ  26193.89092262  .00013101  00000+0  38636-3 0  9991
2 58288  97.3780 269.6367 0002486 192.8272 167.2908 15.35130335148697
ICEYE-X34               
1 58294U 23174AQ  26193.77332431  .00143164  00000+0  11404-2 0  9996
2 58294  97.3863 286.2997 0001540 210.0049 150.1125 15.70741927149759
ICEYE-X35               
1 58302U 23174AY  26193.87410125  .00042010  00000+0  62523-3 0  9991
2 58302  97.3792 279.1994 0008036 115.2684 244.9403 15.54989120149332
ICEYE-X38               
1 59100U 24043C   26193.84468646  .00002340  00000+0  13622-3 0  9990
2 59100  97.8428 338.3049 0002573  28.0311 332.1058 15.13079013115556
ICEYE-X37               
1 59102U 24043E   26193.69113991  .00001414  00000+0  10061-3 0  9990
2 59102  97.8334 331.0992 0013676 283.5814  76.3888 15.06282469128929
ICEYE-X36               
1 59103U 24043F   26193.68010904  .00002382  00000+0  16252-3 0  9993
2 59103  97.8390 332.2120 0005148 223.8448 136.2370 15.07220096128980
ICEYE-X43               
1 60539U 24149BZ  26193.78305587  .00001196  00000+0  10146-3 0  9998
2 60539  97.6811 270.4043 0006570 357.7584   2.3608 14.99783872103959
ICEYE-X39               
1 60546U 24149CG  26193.76006051  .00002518  00000+0  20684-3 0  9995
2 60546  97.6785 270.4379 0006992  53.3845 306.8020 15.00062518103956
ICEYE-X33               
1 60548U 24149CJ  26190.83635085  .00003143  00000+0  25135-3 0  9998
2 60548  97.7345 269.8614 0001952  73.3938 286.7500 15.00937312103605
