{"fetched_at":"2026-07-13T07:48:23.751Z","source":"https://celestrak.org/NORAD/elements/gp.php?NAME=ICEYE&FORMAT=JSON","constellation":"iceye","records":[{"OBJECT_NAME":"ICEYE-X2","OBJECT_ID":"2018-099AU","EPOCH":"2026-07-12T20:26:37.793184","CLASSIFICATION_TYPE":"U","MEAN_MOTION":15.18021117,"ECCENTRICITY":0.0009521,"INCLINATION":97.4351,"RA_OF_ASC_NODE":247.2432,"ARG_OF_PERICENTER":203.1737,"MEAN_ANOMALY":156.9069,"EPHEMERIS_TYPE":0,"NORAD_CAT_ID":43800,"ELEMENT_SET_NO":999,"REV_AT_EPOCH":41671,"BSTAR":0.00012137,"MEAN_MOTION_DOT":0.00002404,"MEAN_MOTION_DDOT":0},{"OBJECT_NAME":"ICEYE-X4","OBJECT_ID":"2019-038D","EPOCH":"2026-07-12T20:12:51.500736","CLASSIFICATION_TYPE":"U","MEAN_MOTION":15.29849601,"ECCENTRICITY":0.0012626,"INCLINATION":97.8751,"RA_OF_ASC_NODE":228.2715,"ARG_OF_PERICENTER":206.5249,"MEAN_ANOMALY":153.5346,"EPHEMERIS_TYPE":0,"NORAD_CAT_ID":44390,"ELEMENT_SET_NO":999,"REV_AT_EPOCH":38572,"BSTAR":0.00028343,"MEAN_MOTION_DOT":0.00008128,"MEAN_MOTION_DDOT":0},{"OBJECT_NAME":"ICEYE-X7","OBJECT_ID":"2020-068L","EPOCH":"2026-07-12T21:06:29.085120","CLASSIFICATION_TYPE":"U","MEAN_MOTION":15.32067584,"ECCENTRICITY":0.0005799,"INCLINATION":97.75,"RA_OF_ASC_NODE":161.5852,"ARG_OF_PERICENTER":222.957,"MEAN_ANOMALY":137.1218,"EPHEMERIS_TYPE":0,"NORAD_CAT_ID":46496,"ELEMENT_SET_NO":999,"REV_AT_EPOCH":31872,"BSTAR":0.00025725,"MEAN_MOTION_DOT":0.00007885,"MEAN_MOTION_DDOT":0},{"OBJECT_NAME":"ICEYE-X6","OBJECT_ID":"2020-068M","EPOCH":"2026-07-12T20:41:19.543200","CLASSIFICATION_TYPE":"U","MEAN_MOTION":15.04658872,"ECCENTRICITY":0.0007436,"INCLINATION":98.0985,"RA_OF_ASC_NODE":188.7637,"ARG_OF_PERICENTER":16.868,"MEAN_ANOMALY":343.2791,"EPHEMERIS_TYPE":0,"NORAD_CAT_ID":46497,"ELEMENT_SET_NO":999,"REV_AT_EPOCH":31709,"BSTAR":0.00014715,"MEAN_MOTION_DOT":0.00002002,"MEAN_MOTION_DDOT":0},{"OBJECT_NAME":"ICEYE-X21","OBJECT_ID":"2023-001AS","EPOCH":"2026-06-24T05:11:18.420288","CLASSIFICATION_TYPE":"U","MEAN_MOTION":16.24069885,"ECCENTRICITY":0.00123774,"INCLINATION":97.3001,"RA_OF_ASC_NODE":262.6152,"ARG_OF_PERICENTER":285.9702,"MEAN_ANOMALY":74.0225,"EPHEMERIS_TYPE":0,"NORAD_CAT_ID":55049,"ELEMENT_SET_NO":999,"REV_AT_EPOCH":19475,"BSTAR":0.000602142,"MEAN_MOTION_DOT":0.01585954,"MEAN_MOTION_DDOT":0.000002396838},{"OBJECT_NAME":"ICEYE-X25","OBJECT_ID":"2023-084AH","EPOCH":"2026-07-12T21:12:02.127744","CLASSIFICATION_TYPE":"U","MEAN_MOTION":15.6267852,"ECCENTRICITY":0.0004166,"INCLINATION":97.5901,"RA_OF_ASC_NODE":341.9509,"ARG_OF_PERICENTER":192.3978,"MEAN_ANOMALY":167.7178,"EPHEMERIS_TYPE":0,"NORAD_CAT_ID":56963,"ELEMENT_SET_NO":999,"REV_AT_EPOCH":17198,"BSTAR":0.00045204,"MEAN_MOTION_DOT":0.00040496,"MEAN_MOTION_DDOT":0},{"OBJECT_NAME":"ICEYE-X31","OBJECT_ID":"2023-174AJ","EPOCH":"2026-07-12T21:22:55.714368","CLASSIFICATION_TYPE":"U","MEAN_MOTION":15.35130335,"ECCENTRICITY":0.0002486,"INCLINATION":97.378,"RA_OF_ASC_NODE":269.6367,"ARG_OF_PERICENTER":192.8272,"MEAN_ANOMALY":167.2908,"EPHEMERIS_TYPE":0,"NORAD_CAT_ID":58288,"ELEMENT_SET_NO":999,"REV_AT_EPOCH":14869,"BSTAR":0.00038636,"MEAN_MOTION_DOT":0.00013101,"MEAN_MOTION_DDOT":0},{"OBJECT_NAME":"ICEYE-X34","OBJECT_ID":"2023-174AQ","EPOCH":"2026-07-12T18:33:35.220384","CLASSIFICATION_TYPE":"U","MEAN_MOTION":15.70741927,"ECCENTRICITY":0.000154,"INCLINATION":97.3863,"RA_OF_ASC_NODE":286.2997,"ARG_OF_PERICENTER":210.0049,"MEAN_ANOMALY":150.1125,"EPHEMERIS_TYPE":0,"NORAD_CAT_ID":58294,"ELEMENT_SET_NO":999,"REV_AT_EPOCH":14975,"BSTAR":0.0011404,"MEAN_MOTION_DOT":0.00143164,"MEAN_MOTION_DDOT":0},{"OBJECT_NAME":"ICEYE-X35","OBJECT_ID":"2023-174AY","EPOCH":"2026-07-12T20:58:42.348000","CLASSIFICATION_TYPE":"U","MEAN_MOTION":15.5498912,"ECCENTRICITY":0.0008036,"INCLINATION":97.3792,"RA_OF_ASC_NODE":279.1994,"ARG_OF_PERICENTER":115.2684,"MEAN_ANOMALY":244.9403,"EPHEMERIS_TYPE":0,"NORAD_CAT_ID":58302,"ELEMENT_SET_NO":999,"REV_AT_EPOCH":14933,"BSTAR":0.00062523,"MEAN_MOTION_DOT":0.0004201,"MEAN_MOTION_DDOT":0},{"OBJECT_NAME":"ICEYE-X38","OBJECT_ID":"2024-043C","EPOCH":"2026-07-12T20:16:20.910144","CLASSIFICATION_TYPE":"U","MEAN_MOTION":15.13079013,"ECCENTRICITY":0.0002573,"INCLINATION":97.8428,"RA_OF_ASC_NODE":338.3049,"ARG_OF_PERICENTER":28.0311,"MEAN_ANOMALY":332.1058,"EPHEMERIS_TYPE":0,"NORAD_CAT_ID":59100,"ELEMENT_SET_NO":999,"REV_AT_EPOCH":11555,"BSTAR":0.00013622,"MEAN_MOTION_DOT":0.0000234,"MEAN_MOTION_DDOT":0},{"OBJECT_NAME":"ICEYE-X37","OBJECT_ID":"2024-043E","EPOCH":"2026-07-12T16:35:14.488224","CLASSIFICATION_TYPE":"U","MEAN_MOTION":15.06282469,"ECCENTRICITY":0.0013676,"INCLINATION":97.8334,"RA_OF_ASC_NODE":331.0992,"ARG_OF_PERICENTER":283.5814,"MEAN_ANOMALY":76.3888,"EPHEMERIS_TYPE":0,"NORAD_CAT_ID":59102,"ELEMENT_SET_NO":999,"REV_AT_EPOCH":12892,"BSTAR":0.00010061,"MEAN_MOTION_DOT":0.00001414,"MEAN_MOTION_DDOT":0},{"OBJECT_NAME":"ICEYE-X36","OBJECT_ID":"2024-043F","EPOCH":"2026-07-12T16:19:21.421056","CLASSIFICATION_TYPE":"U","MEAN_MOTION":15.07220096,"ECCENTRICITY":0.0005148,"INCLINATION":97.839,"RA_OF_ASC_NODE":332.212,"ARG_OF_PERICENTER":223.8448,"MEAN_ANOMALY":136.237,"EPHEMERIS_TYPE":0,"NORAD_CAT_ID":59103,"ELEMENT_SET_NO":999,"REV_AT_EPOCH":12898,"BSTAR":0.00016252,"MEAN_MOTION_DOT":0.00002382,"MEAN_MOTION_DDOT":0},{"OBJECT_NAME":"ICEYE-X43","OBJECT_ID":"2024-149BZ","EPOCH":"2026-07-12T18:47:36.027168","CLASSIFICATION_TYPE":"U","MEAN_MOTION":14.99783872,"ECCENTRICITY":0.000657,"INCLINATION":97.6811,"RA_OF_ASC_NODE":270.4043,"ARG_OF_PERICENTER":357.7584,"MEAN_ANOMALY":2.3608,"EPHEMERIS_TYPE":0,"NORAD_CAT_ID":60539,"ELEMENT_SET_NO":999,"REV_AT_EPOCH":10395,"BSTAR":0.00010146,"MEAN_MOTION_DOT":0.00001196,"MEAN_MOTION_DDOT":0},{"OBJECT_NAME":"ICEYE-X39","OBJECT_ID":"2024-149CG","EPOCH":"2026-07-12T18:14:29.228064","CLASSIFICATION_TYPE":"U","MEAN_MOTION":15.00062518,"ECCENTRICITY":0.0006992,"INCLINATION":97.6785,"RA_OF_ASC_NODE":270.4379,"ARG_OF_PERICENTER":53.3845,"MEAN_ANOMALY":306.802,"EPHEMERIS_TYPE":0,"NORAD_CAT_ID":60546,"ELEMENT_SET_NO":999,"REV_AT_EPOCH":10395,"BSTAR":0.00020684,"MEAN_MOTION_DOT":0.00002518,"MEAN_MOTION_DDOT":0},{"OBJECT_NAME":"ICEYE-X33","OBJECT_ID":"2024-149CJ","EPOCH":"2026-07-09T20:04:20.713440","CLASSIFICATION_TYPE":"U","MEAN_MOTION":15.00937312,"ECCENTRICITY":0.0001952,"INCLINATION":97.7345,"RA_OF_ASC_NODE":269.8614,"ARG_OF_PERICENTER":73.3938,"MEAN_ANOMALY":286.75,"EPHEMERIS_TYPE":0,"NORAD_CAT_ID":60548,"ELEMENT_SET_NO":999,"REV_AT_EPOCH":10360,"BSTAR":0.00025134873,"MEAN_MOTION_DOT":0.00003143,"MEAN_MOTION_DDOT":0}]}
